COSMOS 2151             
1 21422U 91042A   25325.60488753  .00001708  00000+0  13650-3 0  9998
2 21422  82.4977 187.8672 0014055  66.4967 293.7732 14.99579005846990
SL-14 R/B               
1 21423U 91042B   25325.50984205  .00000485  00000+0  58577-4 0  9990
2 21423  82.4913 321.6341 0015727 233.5476 126.4289 14.81710718837056
ERS-1                   
1 21574U 91050A   25325.46513253  .00000367  00000+0  13223-3 0  9999
2 21574  98.7915 335.9869 0032362 161.6085 198.6280 14.39341591800165
ARIANE 40 R/B           
1 21610U 91050F   25325.56534705  .00000399  00000+0  13214-3 0  9991
2 21610  98.2195  16.7573 0003983  56.8897 303.2675 14.42787908803402
INTERCOSMOS 25          
1 21819U 91086A   25325.58210103  .00001223  00000+0  23958-3 0  9999
2 21819  82.6078  15.3677 1487673 350.0156   7.4105 12.11632448483597
SL-8 R/B                
1 21876U 92008B   25325.60165256  .00000133  00000+0  12094-3 0  9996
2 21876  82.9271 348.1707 0036085  77.2753  35.6835 13.75952370694559
SL-8 R/B                
1 21938U 92020B   25325.24714617  .00000096  00000+0  83527-4 0  9998
2 21938  82.9317 234.2755 0027759 239.6404 231.4399 13.75523191686223
USA 81                  
1 21949U 92023A   25325.58701574  .00000214  00000+0  72066-4 0  9996
2 21949  85.0100 193.7736 0002383  69.1444 291.0003 14.32316250 79313
COSMOS 2219             
1 22219U 92076A   25325.21987738 -.00000111  00000+0 -33571-4 0  9999
2 22219  71.0609 244.8151 0018232 357.3321   2.7701 14.14067497703040
SL-16 R/B               
1 22220U 92076B   25325.61506189  .00000034  00000+0  40703-4 0  9999
2 22220  71.0010  56.0289 0015162 261.4893 197.8483 14.16835600706521
COSMOS 2221             
1 22236U 92080A   25325.27599419  .00001914  00000+0  16967-3 0  9993
2 22236  82.5062  22.8664 0014332 190.8939 169.1974 14.95645852764586
SL-16 R/B               
1 22285U 92093B   25325.18937455 -.00000030  00000+0  91112-5 0  9993
2 22285  71.0218 232.0318 0002188 137.0476 223.0819 14.15428223697803
