CCSDS_OMM_VERS = 2.0
CREATION_DATE  = 
ORIGINATOR     = 

OBJECT_NAME    = COSMOS 2151
OBJECT_ID      = 1991-042A
CENTER_NAME    = EARTH
REF_FRAME      = TEME
TIME_SYSTEM    = UTC
MEAN_ELEMENT_THEORY = SGP/SGP4

EPOCH          = 2025-11-21T14:31:02.282592
MEAN_MOTION    = 14.99579005
ECCENTRICITY   = .0014055
INCLINATION    = 82.4977
RA_OF_ASC_NODE = 187.8672
ARG_OF_PERICENTER = 66.4967
MEAN_ANOMALY   = 293.7732

EPHEMERIS_TYPE = 0
CLASSIFICATION_TYPE = U
NORAD_CAT_ID   = 21422
ELEMENT_SET_NO = 999
REV_AT_EPOCH   = 84699
BSTAR          = .1365E-3
MEAN_MOTION_DOT = .1708E-4
MEAN_MOTION_DDOT = 0

CCSDS_OMM_VERS = 2.0
CREATION_DATE  = 
ORIGINATOR     = 

OBJECT_NAME    = SL-14 R/B
OBJECT_ID      = 1991-042B
CENTER_NAME    = EARTH
REF_FRAME      = TEME
TIME_SYSTEM    = UTC
MEAN_ELEMENT_THEORY = SGP/SGP4

EPOCH          = 2025-11-21T12:14:10.353120
MEAN_MOTION    = 14.81710718
ECCENTRICITY   = .0015727
INCLINATION    = 82.4913
RA_OF_ASC_NODE = 321.6341
ARG_OF_PERICENTER = 233.5476
MEAN_ANOMALY   = 126.4289

EPHEMERIS_TYPE = 0
CLASSIFICATION_TYPE = U
NORAD_CAT_ID   = 21423
ELEMENT_SET_NO = 999
REV_AT_EPOCH   = 83705
BSTAR          = .58577E-4
MEAN_MOTION_DOT = .485E-5
MEAN_MOTION_DDOT = 0

CCSDS_OMM_VERS = 2.0
CREATION_DATE  = 
ORIGINATOR     = 

OBJECT_NAME    = ERS-1
OBJECT_ID      = 1991-050A
CENTER_NAME    = EARTH
REF_FRAME      = TEME
TIME_SYSTEM    = UTC
MEAN_ELEMENT_THEORY = SGP/SGP4

EPOCH          = 2025-11-21T11:09:47.450592
MEAN_MOTION    = 14.39341591
ECCENTRICITY   = .0032362
INCLINATION    = 98.7915
RA_OF_ASC_NODE = 335.9869
ARG_OF_PERICENTER = 161.6085
MEAN_ANOMALY   = 198.6280

EPHEMERIS_TYPE = 0
CLASSIFICATION_TYPE = U
NORAD_CAT_ID   = 21574
ELEMENT_SET_NO = 999
REV_AT_EPOCH   = 80016
BSTAR          = .13223E-3
MEAN_MOTION_DOT = .367E-5
MEAN_MOTION_DDOT = 0

CCSDS_OMM_VERS = 2.0
CREATION_DATE  = 
ORIGINATOR     = 

OBJECT_NAME    = ARIANE 40 R/B
OBJECT_ID      = 1991-050F
CENTER_NAME    = EARTH
REF_FRAME      = TEME
TIME_SYSTEM    = UTC
MEAN_ELEMENT_THEORY = SGP/SGP4

EPOCH          = 2025-11-21T13:34:05.985120
MEAN_MOTION    = 14.42787908
ECCENTRICITY   = .0003983
INCLINATION    = 98.2195
RA_OF_ASC_NODE = 16.7573
ARG_OF_PERICENTER = 56.8897
MEAN_ANOMALY   = 303.2675

EPHEMERIS_TYPE = 0
CLASSIFICATION_TYPE = U
NORAD_CAT_ID   = 21610
ELEMENT_SET_NO = 999
REV_AT_EPOCH   = 80340
BSTAR          = .13214E-3
MEAN_MOTION_DOT = .399E-5
MEAN_MOTION_DDOT = 0

CCSDS_OMM_VERS = 2.0
CREATION_DATE  = 
ORIGINATOR     = 

OBJECT_NAME    = INTERCOSMOS 25
OBJECT_ID      = 1991-086A
CENTER_NAME    = EARTH
REF_FRAME      = TEME
TIME_SYSTEM    = UTC
MEAN_ELEMENT_THEORY = SGP/SGP4

EPOCH          = 2025-11-21T13:58:13.528992
MEAN_MOTION    = 12.11632448
ECCENTRICITY   = .1487673
INCLINATION    = 82.6078
RA_OF_ASC_NODE = 15.3677
ARG_OF_PERICENTER = 350.0156
MEAN_ANOMALY   = 7.4105

EPHEMERIS_TYPE = 0
CLASSIFICATION_TYPE = U
NORAD_CAT_ID   = 21819
ELEMENT_SET_NO = 999
REV_AT_EPOCH   = 48359
BSTAR          = .23958E-3
MEAN_MOTION_DOT = .1223E-4
MEAN_MOTION_DDOT = 0

CCSDS_OMM_VERS = 2.0
CREATION_DATE  = 
ORIGINATOR     = 

OBJECT_NAME    = SL-8 R/B
OBJECT_ID      = 1992-008B
CENTER_NAME    = EARTH
REF_FRAME      = TEME
TIME_SYSTEM    = UTC
MEAN_ELEMENT_THEORY = SGP/SGP4

EPOCH          = 2025-11-21T14:26:22.781184
MEAN_MOTION    = 13.75952370
ECCENTRICITY   = .0036085
INCLINATION    = 82.9271
RA_OF_ASC_NODE = 348.1707
ARG_OF_PERICENTER = 77.2753
MEAN_ANOMALY   = 35.6835

EPHEMERIS_TYPE = 0
CLASSIFICATION_TYPE = U
NORAD_CAT_ID   = 21876
ELEMENT_SET_NO = 999
REV_AT_EPOCH   = 69455
BSTAR          = .12094E-3
MEAN_MOTION_DOT = .133E-5
MEAN_MOTION_DDOT = 0

CCSDS_OMM_VERS = 2.0
CREATION_DATE  = 
ORIGINATOR     = 

OBJECT_NAME    = SL-8 R/B
OBJECT_ID      = 1992-020B
CENTER_NAME    = EARTH
REF_FRAME      = TEME
TIME_SYSTEM    = UTC
MEAN_ELEMENT_THEORY = SGP/SGP4

EPOCH          = 2025-11-21T05:55:53.429088
MEAN_MOTION    = 13.75523191
ECCENTRICITY   = .0027759
INCLINATION    = 82.9317
RA_OF_ASC_NODE = 234.2755
ARG_OF_PERICENTER = 239.6404
MEAN_ANOMALY   = 231.4399

EPHEMERIS_TYPE = 0
CLASSIFICATION_TYPE = U
NORAD_CAT_ID   = 21938
ELEMENT_SET_NO = 999
REV_AT_EPOCH   = 68622
BSTAR          = .83527E-4
MEAN_MOTION_DOT = .96E-6
MEAN_MOTION_DDOT = 0

CCSDS_OMM_VERS = 2.0
CREATION_DATE  = 
ORIGINATOR     = 

OBJECT_NAME    = USA 81
OBJECT_ID      = 1992-023A
CENTER_NAME    = EARTH
REF_FRAME      = TEME
TIME_SYSTEM    = UTC
MEAN_ELEMENT_THEORY = SGP/SGP4

EPOCH          = 2025-11-21T14:05:18.159936
MEAN_MOTION    = 14.32316250
ECCENTRICITY   = .0002383
INCLINATION    = 85.0100
RA_OF_ASC_NODE = 193.7736
ARG_OF_PERICENTER = 69.1444
MEAN_ANOMALY   = 291.0003

EPHEMERIS_TYPE = 0
CLASSIFICATION_TYPE = U
NORAD_CAT_ID   = 21949
ELEMENT_SET_NO = 999
REV_AT_EPOCH   = 7931
BSTAR          = .72066E-4
MEAN_MOTION_DOT = .214E-5
MEAN_MOTION_DDOT = 0

CCSDS_OMM_VERS = 2.0
CREATION_DATE  = 
ORIGINATOR     = 

OBJECT_NAME    = COSMOS 2219
OBJECT_ID      = 1992-076A
CENTER_NAME    = EARTH
REF_FRAME      = TEME
TIME_SYSTEM    = UTC
MEAN_ELEMENT_THEORY = SGP/SGP4

EPOCH          = 2025-11-21T05:16:37.405632
MEAN_MOTION    = 14.14067497
ECCENTRICITY   = .0018232
INCLINATION    = 71.0609
RA_OF_ASC_NODE = 244.8151
ARG_OF_PERICENTER = 357.3321
MEAN_ANOMALY   = 2.7701

EPHEMERIS_TYPE = 0
CLASSIFICATION_TYPE = U
NORAD_CAT_ID   = 22219
ELEMENT_SET_NO = 999
REV_AT_EPOCH   = 70304
BSTAR          = -.33571E-4
MEAN_MOTION_DOT = -.111E-5
MEAN_MOTION_DDOT = 0

CCSDS_OMM_VERS = 2.0
CREATION_DATE  = 
ORIGINATOR     = 

OBJECT_NAME    = SL-16 R/B
OBJECT_ID      = 1992-076B
CENTER_NAME    = EARTH
REF_FRAME      = TEME
TIME_SYSTEM    = UTC
MEAN_ELEMENT_THEORY = SGP/SGP4

EPOCH          = 2025-11-21T14:45:41.347296
MEAN_MOTION    = 14.16835600
ECCENTRICITY   = .0015162
INCLINATION    = 71.0010
RA_OF_ASC_NODE = 56.0289
ARG_OF_PERICENTER = 261.4893
MEAN_ANOMALY   = 197.8483

EPHEMERIS_TYPE = 0
CLASSIFICATION_TYPE = U
NORAD_CAT_ID   = 22220
ELEMENT_SET_NO = 999
REV_AT_EPOCH   = 70652
BSTAR          = .40703E-4
MEAN_MOTION_DOT = .34E-6
MEAN_MOTION_DDOT = 0

CCSDS_OMM_VERS = 2.0
CREATION_DATE  = 
ORIGINATOR     = 

OBJECT_NAME    = COSMOS 2221
OBJECT_ID      = 1992-080A
CENTER_NAME    = EARTH
REF_FRAME      = TEME
TIME_SYSTEM    = UTC
MEAN_ELEMENT_THEORY = SGP/SGP4

EPOCH          = 2025-11-21T06:37:25.898016
MEAN_MOTION    = 14.95645852
ECCENTRICITY   = .0014332
INCLINATION    = 82.5062
RA_OF_ASC_NODE = 22.8664
ARG_OF_PERICENTER = 190.8939
MEAN_ANOMALY   = 169.1974

EPHEMERIS_TYPE = 0
CLASSIFICATION_TYPE = U
NORAD_CAT_ID   = 22236
ELEMENT_SET_NO = 999
REV_AT_EPOCH   = 76458
BSTAR          = .16967E-3
MEAN_MOTION_DOT = .1914E-4
MEAN_MOTION_DDOT = 0

CCSDS_OMM_VERS = 2.0
CREATION_DATE  = 
ORIGINATOR     = 

OBJECT_NAME    = SL-16 R/B
OBJECT_ID      = 1992-093B
CENTER_NAME    = EARTH
REF_FRAME      = TEME
TIME_SYSTEM    = UTC
MEAN_ELEMENT_THEORY = SGP/SGP4

EPOCH          = 2025-11-21T04:32:41.961120
MEAN_MOTION    = 14.15428223
ECCENTRICITY   = .0002188
INCLINATION    = 71.0218
RA_OF_ASC_NODE = 232.0318
ARG_OF_PERICENTER = 137.0476
MEAN_ANOMALY   = 223.0819

EPHEMERIS_TYPE = 0
CLASSIFICATION_TYPE = U
NORAD_CAT_ID   = 22285
ELEMENT_SET_NO = 999
REV_AT_EPOCH   = 69780
BSTAR          = .91112E-5
MEAN_MOTION_DOT = -.3E-6
MEAN_MOTION_DDOT = 0

